<?xml version="1.0" encoding="UTF-8"?>
<ndm xmlns:xsi="http://www.w3.org/2001/XMLSchema-instance" xsi:noNamespaceSchemaLocation="https://sanaregistry.org/r/ndmxml_unqualified/ndmxml-2.0.0-master-2.0.xsd">
<omm id="CCSDS_OMM_VERS" version="2.0">
<header><CREATION_DATE/><ORIGINATOR/></header><body><segment><metadata><OBJECT_NAME>ONEWEB-0461</OBJECT_NAME><OBJECT_ID>2022-012AD</OBJECT_ID><CENTER_NAME>EARTH</CENTER_NAME><REF_FRAME>TEME</REF_FRAME><TIME_SYSTEM>UTC</TIME_SYSTEM><MEAN_ELEMENT_THEORY>SGP4</MEAN_ELEMENT_THEORY></metadata><data><meanElements><EPOCH>2026-01-22T10:21:33.626880</EPOCH><MEAN_MOTION>13.17651446</MEAN_MOTION><ECCENTRICITY>.0001843</ECCENTRICITY><INCLINATION>87.9095</INCLINATION><RA_OF_ASC_NODE>34.8120</RA_OF_ASC_NODE><ARG_OF_PERICENTER>94.9324</ARG_OF_PERICENTER><MEAN_ANOMALY>265.2018</MEAN_ANOMALY></meanElements><tleParameters><EPHEMERIS_TYPE>0</EPHEMERIS_TYPE><CLASSIFICATION_TYPE>U</CLASSIFICATION_TYPE><NORAD_CAT_ID>51649</NORAD_CAT_ID><ELEMENT_SET_NO>999</ELEMENT_SET_NO><REV_AT_EPOCH>19469</REV_AT_EPOCH><BSTAR>.54118E-4</BSTAR><MEAN_MOTION_DOT>.34E-6</MEAN_MOTION_DOT><MEAN_MOTION_DDOT>0</MEAN_MOTION_DDOT></tleParameters></data></segment></body></omm>
<omm id="CCSDS_OMM_VERS" version="2.0">
<header><CREATION_DATE/><ORIGINATOR/></header><body><segment><metadata><OBJECT_NAME>ONEWEB-0463</OBJECT_NAME><OBJECT_ID>2022-012AE</OBJECT_ID><CENTER_NAME>EARTH</CENTER_NAME><REF_FRAME>TEME</REF_FRAME><TIME_SYSTEM>UTC</TIME_SYSTEM><MEAN_ELEMENT_THEORY>SGP4</MEAN_ELEMENT_THEORY></metadata><data><meanElements><EPOCH>2026-01-22T11:44:12.204960</EPOCH><MEAN_MOTION>13.17649520</MEAN_MOTION><ECCENTRICITY>.0001855</ECCENTRICITY><INCLINATION>87.9080</INCLINATION><RA_OF_ASC_NODE>34.8379</RA_OF_ASC_NODE><ARG_OF_PERICENTER>95.8707</ARG_OF_PERICENTER><MEAN_ANOMALY>264.2636</MEAN_ANOMALY></meanElements><tleParameters><EPHEMERIS_TYPE>0</EPHEMERIS_TYPE><CLASSIFICATION_TYPE>U</CLASSIFICATION_TYPE><NORAD_CAT_ID>51650</NORAD_CAT_ID><ELEMENT_SET_NO>999</ELEMENT_SET_NO><REV_AT_EPOCH>19448</REV_AT_EPOCH><BSTAR>.11003E-3</BSTAR><MEAN_MOTION_DOT>.56E-6</MEAN_MOTION_DOT><MEAN_MOTION_DDOT>0</MEAN_MOTION_DDOT></tleParameters></data></segment></body></omm>
<omm id="CCSDS_OMM_VERS" version="2.0">
<header><CREATION_DATE/><ORIGINATOR/></header><body><segment><metadata><OBJECT_NAME>ONEWEB-0464</OBJECT_NAME><OBJECT_ID>2022-012AF</OBJECT_ID><CENTER_NAME>EARTH</CENTER_NAME><REF_FRAME>TEME</REF_FRAME><TIME_SYSTEM>UTC</TIME_SYSTEM><MEAN_ELEMENT_THEORY>SGP4</MEAN_ELEMENT_THEORY></metadata><data><meanElements><EPOCH>2026-01-22T11:53:34.052928</EPOCH><MEAN_MOTION>13.10371791</MEAN_MOTION><ECCENTRICITY>.000159</ECCENTRICITY><INCLINATION>87.8762</INCLINATION><RA_OF_ASC_NODE>65.3244</RA_OF_ASC_NODE><ARG_OF_PERICENTER>95.4290</ARG_OF_PERICENTER><MEAN_ANOMALY>264.7019</MEAN_ANOMALY></meanElements><tleParameters><EPHEMERIS_TYPE>0</EPHEMERIS_TYPE><CLASSIFICATION_TYPE>U</CLASSIFICATION_TYPE><NORAD_CAT_ID>51651</NORAD_CAT_ID><ELEMENT_SET_NO>999</ELEMENT_SET_NO><REV_AT_EPOCH>19024</REV_AT_EPOCH><BSTAR>.15984E-2</BSTAR><MEAN_MOTION_DOT>.571E-5</MEAN_MOTION_DOT><MEAN_MOTION_DDOT>0</MEAN_MOTION_DDOT></tleParameters></data></segment></body></omm>
<omm id="CCSDS_OMM_VERS" version="2.0">
<header><CREATION_DATE/><ORIGINATOR/></header><body><segment><metadata><OBJECT_NAME>ONEWEB-0468</OBJECT_NAME><OBJECT_ID>2022-012AG</OBJECT_ID><CENTER_NAME>EARTH</CENTER_NAME><REF_FRAME>TEME</REF_FRAME><TIME_SYSTEM>UTC</TIME_SYSTEM><MEAN_ELEMENT_THEORY>SGP4</MEAN_ELEMENT_THEORY></metadata><data><meanElements><EPOCH>2026-01-22T12:03:07.573536</EPOCH><MEAN_MOTION>13.10370336</MEAN_MOTION><ECCENTRICITY>.0001733</ECCENTRICITY><INCLINATION>87.8763</INCLINATION><RA_OF_ASC_NODE>65.3168</RA_OF_ASC_NODE><ARG_OF_PERICENTER>91.7917</ARG_OF_PERICENTER><MEAN_ANOMALY>268.3409</MEAN_ANOMALY></meanElements><tleParameters><EPHEMERIS_TYPE>0</EPHEMERIS_TYPE><CLASSIFICATION_TYPE>U</CLASSIFICATION_TYPE><NORAD_CAT_ID>51652</NORAD_CAT_ID><ELEMENT_SET_NO>999</ELEMENT_SET_NO><REV_AT_EPOCH>19022</REV_AT_EPOCH><BSTAR>.66097E-3</BSTAR><MEAN_MOTION_DOT>.243E-5</MEAN_MOTION_DOT><MEAN_MOTION_DDOT>0</MEAN_MOTION_DDOT></tleParameters></data></segment></body></omm>
<omm id="CCSDS_OMM_VERS" version="2.0">
<header><CREATION_DATE/><ORIGINATOR/></header><body><segment><metadata><OBJECT_NAME>ONEWEB-0473</OBJECT_NAME><OBJECT_ID>2022-012AH</OBJECT_ID><CENTER_NAME>EARTH</CENTER_NAME><REF_FRAME>TEME</REF_FRAME><TIME_SYSTEM>UTC</TIME_SYSTEM><MEAN_ELEMENT_THEORY>SGP4</MEAN_ELEMENT_THEORY></metadata><data><meanElements><EPOCH>2026-01-22T11:41:37.207680</EPOCH><MEAN_MOTION>13.10374809</MEAN_MOTION><ECCENTRICITY>.0001845</ECCENTRICITY><INCLINATION>87.8762</INCLINATION><RA_OF_ASC_NODE>65.3223</RA_OF_ASC_NODE><ARG_OF_PERICENTER>94.1081</ARG_OF_PERICENTER><MEAN_ANOMALY>266.0257</MEAN_ANOMALY></meanElements><tleParameters><EPHEMERIS_TYPE>0</EPHEMERIS_TYPE><CLASSIFICATION_TYPE>U</CLASSIFICATION_TYPE><NORAD_CAT_ID>51653</NORAD_CAT_ID><ELEMENT_SET_NO>999</ELEMENT_SET_NO><REV_AT_EPOCH>19022</REV_AT_EPOCH><BSTAR>.21108E-2</BSTAR><MEAN_MOTION_DOT>.75E-5</MEAN_MOTION_DOT><MEAN_MOTION_DDOT>0</MEAN_MOTION_DDOT></tleParameters></data></segment></body></omm>
<omm id="CCSDS_OMM_VERS" version="2.0">
<header><CREATION_DATE/><ORIGINATOR/></header><body><segment><metadata><OBJECT_NAME>ONEWEB-0474</OBJECT_NAME><OBJECT_ID>2022-012AJ</OBJECT_ID><CENTER_NAME>EARTH</CENTER_NAME><REF_FRAME>TEME</REF_FRAME><TIME_SYSTEM>UTC</TIME_SYSTEM><MEAN_ELEMENT_THEORY>SGP4</MEAN_ELEMENT_THEORY></metadata><data><meanElements><EPOCH>2026-01-22T09:39:42.700320</EPOCH><MEAN_MOTION>13.10375560</MEAN_MOTION><ECCENTRICITY>.0001635</ECCENTRICITY><INCLINATION>87.8775</INCLINATION><RA_OF_ASC_NODE>65.3094</RA_OF_ASC_NODE><ARG_OF_PERICENTER>89.8684</ARG_OF_PERICENTER><MEAN_ANOMALY>270.2631</MEAN_ANOMALY></meanElements><tleParameters><EPHEMERIS_TYPE>0</EPHEMERIS_TYPE><CLASSIFICATION_TYPE>U</CLASSIFICATION_TYPE><NORAD_CAT_ID>51654</NORAD_CAT_ID><ELEMENT_SET_NO>999</ELEMENT_SET_NO><REV_AT_EPOCH>19020</REV_AT_EPOCH><BSTAR>.1562E-2</BSTAR><MEAN_MOTION_DOT>.558E-5</MEAN_MOTION_DOT><MEAN_MOTION_DDOT>0</MEAN_MOTION_DDOT></tleParameters></data></segment></body></omm>
<omm id="CCSDS_OMM_VERS" version="2.0">
<header><CREATION_DATE/><ORIGINATOR/></header><body><segment><metadata><OBJECT_NAME>ONEWEB-0475</OBJECT_NAME><OBJECT_ID>2022-012AK</OBJECT_ID><CENTER_NAME>EARTH</CENTER_NAME><REF_FRAME>TEME</REF_FRAME><TIME_SYSTEM>UTC</TIME_SYSTEM><MEAN_ELEMENT_THEORY>SGP4</MEAN_ELEMENT_THEORY></metadata><data><meanElements><EPOCH>2026-01-22T12:01:12.194976</EPOCH><MEAN_MOTION>13.17649672</MEAN_MOTION><ECCENTRICITY>.00018</ECCENTRICITY><INCLINATION>87.9084</INCLINATION><RA_OF_ASC_NODE>34.8266</RA_OF_ASC_NODE><ARG_OF_PERICENTER>68.7314</ARG_OF_PERICENTER><MEAN_ANOMALY>291.4010</MEAN_ANOMALY></meanElements><tleParameters><EPHEMERIS_TYPE>0</EPHEMERIS_TYPE><CLASSIFICATION_TYPE>U</CLASSIFICATION_TYPE><NORAD_CAT_ID>51655</NORAD_CAT_ID><ELEMENT_SET_NO>999</ELEMENT_SET_NO><REV_AT_EPOCH>19450</REV_AT_EPOCH><BSTAR>.49126E-4</BSTAR><MEAN_MOTION_DOT>.32E-6</MEAN_MOTION_DOT><MEAN_MOTION_DDOT>0</MEAN_MOTION_DDOT></tleParameters></data></segment></body></omm>
<omm id="CCSDS_OMM_VERS" version="2.0">
<header><CREATION_DATE/><ORIGINATOR/></header><body><segment><metadata><OBJECT_NAME>ONEWEB-0490</OBJECT_NAME><OBJECT_ID>2022-138A</OBJECT_ID><CENTER_NAME>EARTH</CENTER_NAME><REF_FRAME>TEME</REF_FRAME><TIME_SYSTEM>UTC</TIME_SYSTEM><MEAN_ELEMENT_THEORY>SGP4</MEAN_ELEMENT_THEORY></metadata><data><meanElements><EPOCH>2026-01-22T08:08:00.540096</EPOCH><MEAN_MOTION>13.19726723</MEAN_MOTION><ECCENTRICITY>.0001625</ECCENTRICITY><INCLINATION>87.9250</INCLINATION><RA_OF_ASC_NODE>333.9845</RA_OF_ASC_NODE><ARG_OF_PERICENTER>75.9859</ARG_OF_PERICENTER><MEAN_ANOMALY>284.1454</MEAN_ANOMALY></meanElements><tleParameters><EPHEMERIS_TYPE>0</EPHEMERIS_TYPE><CLASSIFICATION_TYPE>U</CLASSIFICATION_TYPE><NORAD_CAT_ID>54113</NORAD_CAT_ID><ELEMENT_SET_NO>999</ELEMENT_SET_NO><REV_AT_EPOCH>15759</REV_AT_EPOCH><BSTAR>.24347E-3</BSTAR><MEAN_MOTION_DOT>.11E-5</MEAN_MOTION_DOT><MEAN_MOTION_DDOT>0</MEAN_MOTION_DDOT></tleParameters></data></segment></body></omm>

</ndm>
