ONEWEB-0461             
1 51649U 22012AD  26022.43163920  .00000034  00000+0  54118-4 0  9991
2 51649  87.9095  34.8120 0001843  94.9324 265.2018 13.17651446194691
ONEWEB-0463             
1 51650U 22012AE  26022.48903015  .00000056  00000+0  11003-3 0  9994
2 51650  87.9080  34.8379 0001855  95.8707 264.2636 13.17649520194483
ONEWEB-0464             
1 51651U 22012AF  26022.49553302  .00000571  00000+0  15984-2 0  9999
2 51651  87.8762  65.3244 0001590  95.4290 264.7019 13.10371791190244
ONEWEB-0468             
1 51652U 22012AG  26022.50217099  .00000243  00000+0  66097-3 0  9990
2 51652  87.8763  65.3168 0001733  91.7917 268.3409 13.10370336190220
ONEWEB-0473             
1 51653U 22012AH  26022.48723620  .00000750  00000+0  21108-2 0  9996
2 51653  87.8762  65.3223 0001845  94.1081 266.0257 13.10374809190220
ONEWEB-0474             
1 51654U 22012AJ  26022.40257755  .00000558  00000+0  15620-2 0  9998
2 51654  87.8775  65.3094 0001635  89.8684 270.2631 13.10375560190204
ONEWEB-0475             
1 51655U 22012AK  26022.50083559  .00000032  00000+0  49126-4 0  9996
2 51655  87.9084  34.8266 0001800  68.7314 291.4010 13.17649672194509
ONEWEB-0490             
1 54113U 22138A   26022.33889514  .00000110  00000+0  24347-3 0  9997
2 54113  87.9250 333.9845 0001625  75.9859 284.1454 13.19726723157595
